NORAD_CAT_ID,OBJECT_NAME,OBJECT_TYPE,EPOCH,MEAN_MOTION,ECCENTRICITY,INCLINATION,RA_OF_ASC_NODE,ARG_OF_PERICENTER,MEAN_ANOMALY,BSTAR,MEAN_MOTION_DOT,MEAN_MOTION_DDOT,TLE_LINE0,TLE_LINE1,TLE_LINE2,SEMIMAJOR_AXIS,PERIOD,APOGEE,PERIGEE,DECAYED
53147.0,STARLINK-4094,PAYLOAD,2024-06-10 15:59:00,15.08836826,0.0001427,53.2165,153.8309,94.6371,265.4784,5.1519e-06,-2.06e-06,0.0,0 STARLINK-4094,1 53147U 22083R   24162.66597580 -.00000206  00000-0  51519-5 0  9991,2 53147  53.2165 153.8309 0001427  94.6371 265.4784 15.08836826105703,6917.89,95.438,540.742,538.768,0.0
53147.0,STARLINK-4094,PAYLOAD,2024-06-11 04:42:05,15.08834683,0.0001323,53.2162,151.452,94.4431,265.6712,5.682e-05,6.16e-06,0.0,0 STARLINK-4094,1 53147U 22083R   24163.19589674  .00000616  00000-0  56820-4 0  9998,2 53147  53.2162 151.4520 0001323  94.4431 265.6712 15.08834683105767,6917.897,95.438,540.677,538.846,0.0
53147.0,STARLINK-4094,PAYLOAD,2024-06-11 06:17:28,15.08835489,0.0001321,53.2162,151.1546,94.7405,265.3738,6.2191e-05,7.02e-06,0.0,0 STARLINK-4094,1 53147U 22083R   24163.26213626  .00000702  00000-0  62191-4 0  9991,2 53147  53.2162 151.1546 0001321  94.7405 265.3738 15.08835489105797,6917.894,95.438,540.673,538.845,0.0
53147.0,STARLINK-4094,PAYLOAD,2024-06-12 06:08:16,15.0882917,0.0001369,53.2168,146.6949,95.6116,264.5032,-3.3318e-05,-8.18e-06,0.0,0 STARLINK-4094,1 53147U 22083R   24164.25574755 -.00000818  00000-0 -33318-4 0  9993,2 53147  53.2168 146.6949 0001369  95.6116 264.5032 15.08829170105923,6917.913,95.438,540.726,538.831,0.0
53147.0,STARLINK-4094,PAYLOAD,2024-06-12 22:02:08,15.0882412,0.0001373,53.2168,143.7217,99.6201,260.4946,-5.4302e-05,-1.152e-05,0.0,0 STARLINK-4094,1 53147U 22083R   24164.91815689 -.00001152  00000-0 -54302-4 0  9998,2 53147  53.2168 143.7217 0001373  99.6201 260.4946 15.08824120106046,6917.929,95.439,540.744,538.844,0.0
53147.0,STARLINK-4094,PAYLOAD,2024-06-13 07:34:27,15.08827057,0.0001435,53.217,141.9377,99.2353,260.8802,-2.3575e-05,-6.63e-06,0.0,0 STARLINK-4094,1 53147U 22083R   24165.31559795 -.00000663  00000-0 -23575-4 0  9990,2 53147  53.2170 141.9377 0001435  99.2353 260.8802 15.08827057106080,6917.92,95.438,540.778,538.792,0.0
53147.0,STARLINK-4094,PAYLOAD,2024-06-13 15:31:23,15.08830186,0.0001397,53.217,140.45,93.4238,266.6914,1.5465e-05,-4.2e-07,0.0,0 STARLINK-4094,1 53147U 22083R   24165.64679712 -.00000042  00000-0  15465-4 0  9997,2 53147  53.2170 140.4500 0001397  93.4238 266.6914 15.08830186106150,6917.91,95.438,540.742,538.809,0.0
53147.0,STARLINK-4094,PAYLOAD,2024-06-14 05:49:51,15.08834113,0.0001404,53.2167,137.7741,92.2434,267.8719,0.00013109,1.799e-05,0.0,0 STARLINK-4094,1 53147U 22083R   24166.24295438  .00001799  00000-0  13109-3 0  9994,2 53147  53.2167 137.7741 0001404  92.2434 267.8719 15.08834113106246,6917.898,95.438,540.735,538.792,0.0
53147.0,STARLINK-4094,PAYLOAD,2024-06-14 21:43:42,15.08842098,0.0001461,53.2171,134.7994,91.7703,268.3456,0.00020162,2.922e-05,0.0,0 STARLINK-4094,1 53147U 22083R   24166.90534819  .00002922  00000-0  20162-3 0  9992,2 53147  53.2171 134.7994 0001461  91.7703 268.3456 15.08842098106340,6917.874,95.437,540.75,538.728,0.0
53147.0,STARLINK-4094,PAYLOAD,2024-06-15 04:05:13,15.08851764,0.0001379,53.2163,133.6094,93.1021,267.0129,0.0002294,3.366e-05,0.0,0 STARLINK-4094,1 53147U 22083R   24167.17029995  .00003366  00000-0  22940-3 0  9995,2 53147  53.2163 133.6094 0001379  93.1021 267.0129 15.08851764106384,6917.844,95.437,540.663,538.755,0.0
53147.0,STARLINK-4094,PAYLOAD,2024-06-15 15:12:56,15.08843769,0.000147,53.2157,131.5273,98.743,261.3729,9.9604e-05,1.298e-05,0.0,0 STARLINK-4094,1 53147U 22083R   24167.63398738  .00001298  00000-0  99604-4 0  9994,2 53147  53.2157 131.5273 0001470  98.7430 261.3729 15.08843769106457,6917.869,95.437,540.751,538.717,0.0
53147.0,STARLINK-4094,PAYLOAD,2024-06-16 03:56:01,15.08847353,0.0001392,53.2168,129.1483,100.4456,259.6693,3.5449e-06,-2.32e-06,0.0,0 STARLINK-4094,1 53147U 22083R   24168.16390569 -.00000232  00000-0  35449-5 0  9993,2 53147  53.2168 129.1483 0001392 100.4456 259.6693 15.08847353106539,6917.858,95.437,540.686,538.76,0.0
53147.0,STARLINK-4094,PAYLOAD,2024-06-17 21:16:03,15.08835351,0.0001375,53.2175,121.4154,101.959,258.1556,-2.6774e-05,-7.14e-06,0.0,0 STARLINK-4094,1 53147U 22083R   24169.88614785 -.00000714  00000-0 -26774-4 0  9998,2 53147  53.2175 121.4154 0001375 101.9590 258.1556 15.08835351106776,6917.895,95.438,540.711,538.808,0.0
53147.0,STARLINK-4094,PAYLOAD,2024-06-18 06:48:21,15.08838913,0.0001263,53.2172,119.6342,92.5919,267.5218,2.9323e-06,-2.41e-06,0.0,0 STARLINK-4094,1 53147U 22083R   24170.28358566 -.00000241  00000-0  29323-5 0  9994,2 53147  53.2172 119.6342 0001263  92.5919 267.5218 15.08838913106852,6917.884,95.438,540.622,538.875,0.0
53147.0,STARLINK-4094,PAYLOAD,2024-06-18 21:06:50,15.08836555,0.000121,53.217,116.956,84.1352,275.9778,3.0538e-05,1.98e-06,0.0,0 STARLINK-4094,1 53147U 22083R   24170.87974711  .00000198  00000-0  30538-4 0  9994,2 53147  53.2170 116.9560 0001210  84.1352 275.9778 15.08836555106946,6917.891,95.438,540.593,538.919,0.0
53147.0,STARLINK-4094,PAYLOAD,2024-06-19 03:28:22,15.08842795,0.0001213,53.2167,115.7671,84.9268,275.1862,7.8646e-05,9.64e-06,0.0,0 STARLINK-4094,1 53147U 22083R   24171.14470178  .00000964  00000-0  78646-4 0  9996,2 53147  53.2167 115.7671 0001213  84.9268 275.1862 15.08842795106960,6917.872,95.437,540.576,538.898,0.0
53147.0,STARLINK-4094,PAYLOAD,2024-06-19 13:00:41,15.08837653,0.000119,53.2165,113.9826,81.8719,278.2409,4.7627e-05,4.7e-06,0.0,0 STARLINK-4094,1 53147U 22083R   24171.54214575  .00000470  00000-0  47627-4 0  9994,2 53147  53.2165 113.9826 0001190  81.8719 278.2409 15.08837653107049,6917.888,95.438,540.576,538.929,0.0
53147.0,STARLINK-4094,PAYLOAD,2024-06-20 03:19:10,15.08832451,0.0001357,53.2177,111.3106,98.1593,261.9553,3.1078e-06,-2.38e-06,0.0,0 STARLINK-4094,1 53147U 22083R   24172.13831345 -.00000238  00000-0  31078-5 0  9997,2 53147  53.2177 111.3106 0001357  98.1593 261.9553 15.08832451107119,6917.903,95.438,540.707,538.83,0.0
53147.0,STARLINK-4094,PAYLOAD,2024-06-20 19:13:01,15.08834491,0.0001431,53.218,108.3367,94.355,265.7606,2.164e-05,5.6e-07,0.0,0 STARLINK-4094,1 53147U 22083R   24172.80071386  .00000056  00000-0  21640-4 0  9992,2 53147  53.2180 108.3367 0001431  94.3550 265.7606 15.08834491107232,6917.897,95.438,540.752,538.772,0.0
53147.0,STARLINK-4094,PAYLOAD,2024-06-21 04:45:20,15.08842717,0.0001408,53.2179,106.5522,95.466,264.6492,2.5059e-05,1.11e-06,0.0,0 STARLINK-4094,1 53147U 22083R   24173.19814959  .00000111  00000-0  25059-4 0  9996,2 53147  53.2179 106.5522 0001408  95.4660 264.6492 15.08842717107276,6917.872,95.437,540.711,538.763,0.0
53147.0,STARLINK-4094,PAYLOAD,2024-06-22 04:36:07,15.08844589,0.0001454,53.2174,102.0902,100.872,259.2436,7.9588e-05,9.79e-06,0.0,0 STARLINK-4094,1 53147U 22083R   24174.19174779  .00000979  00000-0  79588-4 0  9994,2 53147  53.2174 102.0902 0001454 100.8720 259.2436 15.08844589107449,6917.866,95.437,540.737,538.726,0.0
53147.0,STARLINK-4094,PAYLOAD,2024-06-22 18:54:35,15.08838406,0.0001464,53.2175,99.4108,101.2296,258.886,-2.4849e-05,-6.83e-06,0.0,0 STARLINK-4094,1 53147U 22083R   24174.78791664 -.00000683  00000-0 -24849-4 0  9991,2 53147  53.2175  99.4108 0001464 101.2296 258.8860 15.08838406107516,6917.885,95.438,540.763,538.737,0.0
53147.0,STARLINK-4094,PAYLOAD,2024-06-23 04:26:54,15.08844179,0.0001418,53.2174,97.6274,100.8829,259.2322,2.7337e-05,1.47e-06,0.0,0 STARLINK-4094,1 53147U 22083R   24175.18535047  .00000147  00000-0  27337-4 0  9995,2 53147  53.2174  97.6274 0001418 100.8829 259.2322 15.08844179107573,6917.868,95.437,540.714,538.752,0.0
53147.0,STARLINK-4094,PAYLOAD,2024-06-24 01:06:54,15.08849961,0.0001361,53.2172,93.7614,107.2634,252.8507,3.7572e-06,-2.28e-06,0.0,0 STARLINK-4094,1 53147U 22083R   24176.04646493 -.00000228  00000-0  37572-5 0  9993,2 53147  53.2172  93.7614 0001361 107.2634 252.8507 15.08849961107723,6917.85,95.437,540.656,538.773,0.0
53147.0,STARLINK-4094,PAYLOAD,2024-06-24 21:46:56,15.08837042,0.0001453,53.2181,89.8962,92.7499,267.366,-4.4347e-05,-9.94e-06,0.0,0 STARLINK-4094,1 53147U 22083R   24176.90759548 -.00000994  00000-0 -44347-4 0  9992,2 53147  53.2181  89.8962 0001453  92.7499 267.3660 15.08837042107856,6917.889,95.438,540.76,538.749,0.0
53147.0,STARLINK-4094,PAYLOAD,2024-06-25 00:57:42,15.08837111,0.0001436,53.2181,89.3015,91.953,268.1626,-4.4152e-05,-9.9e-06,0.0,0 STARLINK-4094,1 53147U 22083R   24177.04007550 -.00000990  00000-0 -44152-4 0  9997,2 53147  53.2181  89.3015 0001436  91.9530 268.1626 15.08837111107856,6917.889,95.438,540.748,538.761,0.0
53147.0,STARLINK-4094,PAYLOAD,2024-06-25 21:37:42,15.08844338,0.0001353,53.2178,85.4378,100.599,259.5155,-3.19e-05,-7.96e-06,0.0,0 STARLINK-4094,1 53147U 22083R   24177.90119039 -.00000796  00000-0 -31900-4 0  9999,2 53147  53.2178  85.4378 0001353 100.5990 259.5155 15.08844338108004,6917.867,95.437,540.668,538.796,0.0
53147.0,STARLINK-4094,PAYLOAD,2024-06-26 00:48:28,15.08849774,0.0001338,53.2179,84.8391,100.0187,260.0956,0.00013764,1.904e-05,0.0,0 STARLINK-4094,1 53147U 22083R   24178.03366040  .00001904  00000-0  13764-3 0  9997,2 53147  53.2179  84.8391 0001338 100.0187 260.0956 15.08849774108004,6917.851,95.437,540.641,538.79,0.0
53147.0,STARLINK-4094,PAYLOAD,2024-06-26 23:03:53,15.08835957,0.0001495,53.2178,80.6768,125.5231,234.59,6.9357e-06,-1.78e-06,0.0,0 STARLINK-4094,1 53147U 22083R   24178.96103296 -.00000178  00000-0  69357-5 0  9995,2 53147  53.2178  80.6768 0001495 125.5231 234.5900 15.08835957108149,6917.893,95.438,540.792,538.724,0.0
53147.0,STARLINK-4094,PAYLOAD,2024-06-27 22:54:41,15.0883736,0.0001367,53.2177,76.2185,97.3309,262.7838,-0.00012688,-2.306e-05,0.0,0 STARLINK-4094,1 53147U 22083R   24179.95464185 -.00002306  00000-0 -12688-3 0  9991,2 53147  53.2177  76.2185 0001367  97.3309 262.7838 15.08837360108314,6917.888,95.438,540.699,538.808,0.0
